{
  "norad_id": 51878,
  "name": "STARLINK-3575",
  "history": [
    {
      "epoch": "2026-05-04T16:55:14.799360Z",
      "apogee_km": 540.6430071032328,
      "perigee_km": 538.872026106983,
      "latitude_deg": -3.8403825849565e-05,
      "longitude_deg": 1.2527706798899076,
      "height_km": 540.3440187377851,
      "semi_major_axis_km": 6917.894516605108,
      "eccentricity": 0.000128,
      "inclination_deg": 53.2169,
      "raan_deg": 117.655,
      "arg_perigee_deg": 69.55,
      "mean_anomaly_deg": 290.5629,
      "mean_motion_rev_day": 15.08835378
    },
    {
      "epoch": "2026-05-05T05:38:19.862304Z",
      "apogee_km": 540.677841546847,
      "perigee_km": 538.818314037936,
      "latitude_deg": 2.4636186837146858e-05,
      "longitude_deg": 167.58130729169272,
      "height_km": 540.3086847193194,
      "semi_major_axis_km": 6917.885077792391,
      "eccentricity": 0.0001344,
      "inclination_deg": 53.2172,
      "raan_deg": 115.2769,
      "arg_perigee_deg": 68.866,
      "mean_anomaly_deg": 291.2476,
      "mean_motion_rev_day": 15.08838466
    },
    {
      "epoch": "2026-05-06T08:39:52.902144Z",
      "apogee_km": 540.682062666564,
      "perigee_km": 538.7981863680152,
      "latitude_deg": 2.7629292965056954e-05,
      "longitude_deg": 116.02782719997938,
      "height_km": 540.3487936752388,
      "semi_major_axis_km": 6917.877124517289,
      "eccentricity": 0.00013616,
      "inclination_deg": 53.217,
      "raan_deg": 110.221,
      "arg_perigee_deg": 72.2551,
      "mean_anomaly_deg": 287.859,
      "mean_motion_rev_day": 15.08841068
    },
    {
      "epoch": "2026-05-07T05:19:53.940576Z",
      "apogee_km": 540.6718618183941,
      "perigee_km": 538.8220196526418,
      "latitude_deg": 1.3718030783596277e-05,
      "longitude_deg": 161.3083251637533,
      "height_km": 540.4473268175593,
      "semi_major_axis_km": 6917.883940735518,
      "eccentricity": 0.0001337,
      "inclination_deg": 53.2172,
      "raan_deg": 106.3546,
      "arg_perigee_deg": 77.8054,
      "mean_anomaly_deg": 282.3088,
      "mean_motion_rev_day": 15.08838838
    },
    {
      "epoch": "2026-05-08T14:42:59.577120Z",
      "apogee_km": 540.6994123612021,
      "perigee_km": 538.7734763942881,
      "latitude_deg": -1.0570875000883195e-05,
      "longitude_deg": 12.919548002384733,
      "height_km": 540.3826575108113,
      "semi_major_axis_km": 6917.873444377745,
      "eccentricity": 0.0001392,
      "inclination_deg": 53.2174,
      "raan_deg": 100.1104,
      "arg_perigee_deg": 74.9823,
      "mean_anomaly_deg": 285.1323,
      "mean_motion_rev_day": 15.08842272
    },
    {
      "epoch": "2026-05-09T08:12:14.453280Z",
      "apogee_km": 540.7696261119445,
      "perigee_km": 538.7357665412255,
      "latitude_deg": 3.641230521122041e-06,
      "longitude_deg": 106.61938811367955,
      "height_km": 540.4707902444,
      "semi_major_axis_km": 6917.889696326585,
      "eccentricity": 0.000147,
      "inclination_deg": 53.2181,
      "raan_deg": 96.8404,
      "arg_perigee_deg": 79.944,
      "mean_anomaly_deg": 280.1718,
      "mean_motion_rev_day": 15.08836955
    },
    {
      "epoch": "2026-05-10T06:27:38.721024Z",
      "apogee_km": 540.7997891263158,
      "perigee_km": 538.7154274808345,
      "latitude_deg": 1.9231831021063283e-05,
      "longitude_deg": 127.69103066239484,
      "height_km": 540.461078221185,
      "semi_major_axis_km": 6917.894608303575,
      "eccentricity": 0.00015065,
      "inclination_deg": 53.2181,
      "raan_deg": 92.6772,
      "arg_perigee_deg": 79.3759,
      "mean_anomaly_deg": 280.7403,
      "mean_motion_rev_day": 15.08835348
    },
    {
      "epoch": "2026-05-11T14:15:21.377952Z",
      "apogee_km": 540.785626424029,
      "perigee_km": 538.7144110506188,
      "latitude_deg": -2.529856631851362e-05,
      "longitude_deg": 3.5092778007743353,
      "height_km": 540.4429752286939,
      "semi_major_axis_km": 6917.887018737324,
      "eccentricity": 0.0001497,
      "inclination_deg": 53.2182,
      "raan_deg": 86.729,
      "arg_perigee_deg": 78.7131,
      "mean_anomaly_deg": 281.4029,
      "mean_motion_rev_day": 15.08837831
    },
    {
      "epoch": "2026-05-12T14:06:08.248608Z",
      "apogee_km": 540.8429848148598,
      "perigee_km": 538.6361821847222,
      "latitude_deg": -2.647375632025256e-05,
      "longitude_deg": 0.3751478646526681,
      "height_km": 540.3911667813762,
      "semi_major_axis_km": 6917.87658349979,
      "eccentricity": 0.0001595,
      "inclination_deg": 53.2181,
      "raan_deg": 82.2695,
      "arg_perigee_deg": 77.2279,
      "mean_anomaly_deg": 282.8891,
      "mean_motion_rev_day": 15.08841245
    },
    {
      "epoch": "2026-05-13T05:59:59.721792Z",
      "apogee_km": 540.8708584946153,
      "perigee_km": 538.6128628344932,
      "latitude_deg": 5.298497648541216e-05,
      "longitude_deg": 118.2843431945114,
      "height_km": 540.4123145837171,
      "semi_major_axis_km": 6917.878860664554,
      "eccentricity": 0.0001632,
      "inclination_deg": 53.2179,
      "raan_deg": 79.296,
      "arg_perigee_deg": 78.5062,
      "mean_anomaly_deg": 281.6114,
      "mean_motion_rev_day": 15.088405
    },
    {
      "epoch": "2026-05-14T02:40:00.279840Z",
      "apogee_km": 540.8631976691622,
      "perigee_km": 538.6067261926191,
      "latitude_deg": -3.410699225166589e-05,
      "longitude_deg": 163.56679754867483,
      "height_km": 540.4444047624119,
      "semi_major_axis_km": 6917.87196193089,
      "eccentricity": 0.00016309,
      "inclination_deg": 53.2181,
      "raan_deg": 75.4296,
      "arg_perigee_deg": 80.511,
      "mean_anomaly_deg": 279.6066,
      "mean_motion_rev_day": 15.08842757
    },
    {
      "epoch": "2026-05-15T02:30:47.702592Z",
      "apogee_km": 540.8950596806008,
      "perigee_km": 538.6103574254539,
      "latitude_deg": 2.498173870639253e-05,
      "longitude_deg": 160.42950556168643,
      "height_km": 540.498065193842,
      "semi_major_axis_km": 6917.889708553027,
      "eccentricity": 0.00016513,
      "inclination_deg": 53.2185,
      "raan_deg": 70.9692,
      "arg_perigee_deg": 82.451,
      "mean_anomaly_deg": 277.667,
      "mean_motion_rev_day": 15.08836951
    }
  ]
}